{"type": "FeatureCollection", "features": [ {"type": "Feature", "properties": {"norad_id": 31056, "name": "FENGYUN 1C DEB", "group": "fengyun-1c-debris", "lat": 29.048594449687837, "lon": -22.232334485033316, "alt_km": 842.035357560705, "timestamp": "2025-12-26T11:25:45.474289+00:00", "meta": {"OBJECT_NAME": "FENGYUN 1C DEB", "OBJECT_ID": "1999-025BFA", "EPOCH": "2025-12-26T04:47:50.179776", "MEAN_MOTION": 14.14324328, "ECCENTRICITY": 0.0024892, "INCLINATION": 98.6697, "RA_OF_ASC_NODE": 342.3608, "ARG_OF_PERICENTER": 303.7738, "MEAN_ANOMALY": 119.2701, "EPHEMERIS_TYPE": 0, "CLASSIFICATION_TYPE": "U", "NORAD_CAT_ID": 31056, "ELEMENT_SET_NO": 999, "REV_AT_EPOCH": 97008, "BSTAR": 0.00035304, "MEAN_MOTION_DOT": 6.34e-06, "MEAN_MOTION_DDOT": 0}, "tle": {"line1": "1 31056U 99025BFA 25360.19988634  .00000634  00000+0  35304-3 0  9994", "line2": "2 31056  98.6697 342.3608 0024892 303.7738 119.2701 14.14324328970081"}}, "geometry": {"type": "Point", "coordinates": [-22.232334485033316, 29.048594449687837]}}, {"type": "Feature", "properties": {"norad_id": 31057, "name": "FENGYUN 1C DEB", "group": "fengyun-1c-debris", "lat": -75.26715783591301, "lon": -176.35176750998303, "alt_km": 574.6810326705872, "timestamp": "2025-12-26T11:25:45.474298+00:00", "meta": {"OBJECT_NAME": "FENGYUN 1C DEB", "OBJECT_ID": "1999-025BFB", "EPOCH": "2025-12-23T20:35:18.344544", "MEAN_MOTION": 14.79509399, "ECCENTRICITY": 0.01376332, "INCLINATION": 99.2549, "RA_OF_ASC_NODE": 38.9584, "ARG_OF_PERICENTER": 217.07, "MEAN_ANOMALY": 142.094, "EPHEMERIS_TYPE": 0, "CLASSIFICATION_TYPE": "U", "NORAD_CAT_ID": 31057, "ELEMENT_SET_NO": 999, "REV_AT_EPOCH": 62117, "BSTAR": 0.0010448205, "MEAN_MOTION_DOT": 9.107e-05, "MEAN_MOTION_DDOT": 0}, "tle": {"line1": "1 31057U 99025BFB 25357.85785121  .00009107  00000+0  10448-2 0  9995", "line2": "2 31057  99.2549  38.9584 0137633 217.0700 142.0940 14.79509399621176"}}, "geometry": {"type": "Point", "coordinates": [-176.35176750998303, -75.26715783591301]}}, {"type": "Feature", "properties": {"norad_id": 31058, "name": "FENGYUN 1C DEB", "group": "fengyun-1c-debris", "lat": -79.93686396161539, "lon": 24.164238832670016, "alt_km": 705.9282296012025, "timestamp": "2025-12-26T11:25:45.474307+00:00", "meta": {"OBJECT_NAME": "FENGYUN 1C DEB", "OBJECT_ID": "1999-025BFC", "EPOCH": "2025-12-21T14:43:24.738528", "MEAN_MOTION": 14.76461843, "ECCENTRICITY": 0.00952203, "INCLINATION": 99.5682, "RA_OF_ASC_NODE": 306.5125, "ARG_OF_PERICENTER": 79.2038, "MEAN_ANOMALY": 281.9867, "EPHEMERIS_TYPE": 0, "CLASSIFICATION_TYPE": "U", "NORAD_CAT_ID": 31058, "ELEMENT_SET_NO": 999, "REV_AT_EPOCH": 99680, "BSTAR": 0.0010269728, "MEAN_MOTION_DOT": 7.633e-05, "MEAN_MOTION_DDOT": 0}, "tle": {"line1": "1 31058U 99025BFC 25355.61348077  .00007633  00000+0  10270-2 0  9998", "line2": "2 31058  99.5682 306.5125 0095220  79.2038 281.9867 14.76461843996804"}}, "geometry": {"type": "Point", "coordinates": [24.164238832670016, -79.93686396161539]}}, {"type": "Feature", "properties": {"norad_id": 31062, "name": "FENGYUN 1C DEB", "group": "fengyun-1c-debris", "lat": 34.0153135819141, "lon": 8.245401072923492, "alt_km": 1066.3517430750799, "timestamp": "2025-12-26T11:25:45.474317+00:00", "meta": {"OBJECT_NAME": "FENGYUN 1C DEB", "OBJECT_ID": "1999-025BFG", "EPOCH": "2025-12-24T18:39:18.485856", "MEAN_MOTION": 13.75697758, "ECCENTRICITY": 0.01713774, "INCLINATION": 98.997, "RA_OF_ASC_NODE": 180.503, "ARG_OF_PERICENTER": 285.781, "MEAN_ANOMALY": 91.5783, "EPHEMERIS_TYPE": 0, "CLASSIFICATION_TYPE": "U", "NORAD_CAT_ID": 31062, "ELEMENT_SET_NO": 999, "REV_AT_EPOCH": 94399, "BSTAR": 0.00024224696, "MEAN_MOTION_DOT": 2.18e-06, "MEAN_MOTION_DDOT": 0}, "tle": {"line1": "1 31062U 99025BFG 25358.77729729  .00000218  00000+0  24225-3 0  9998", "line2": "2 31062  98.9970 180.5030 0171377 285.7810  91.5783 13.75697758943995"}}, "geometry": {"type": "Point", "coordinates": [8.245401072923492, 34.0153135819141]}}, {"type": "Feature", "properties": {"norad_id": 31064, "name": "FENGYUN 1C DEB", "group": "fengyun-1c-debris", "lat": 73.3743091330162, "lon": -47.554528890088264, "alt_km": 878.0740626445722, "timestamp": "2025-12-26T11:25:45.474326+00:00", "meta": {"OBJECT_NAME": "FENGYUN 1C DEB", "OBJECT_ID": "1999-025BFJ", "EPOCH": "2025-12-25T04:44:59.881920", "MEAN_MOTION": 14.22163246, "ECCENTRICITY": 0.024077, "INCLINATION": 98.575, "RA_OF_ASC_NODE": 341.5529, "ARG_OF_PERICENTER": 325.4003, "MEAN_ANOMALY": 46.8485, "EPHEMERIS_TYPE": 0, "CLASSIFICATION_TYPE": "U", "NORAD_CAT_ID": 31064, "ELEMENT_SET_NO": 999, "REV_AT_EPOCH": 97432, "BSTAR": 0.00037871, "MEAN_MOTION_DOT": 1.078e-05, "MEAN_MOTION_DDOT": 0}, "tle": {"line1": "1 31064U 99025BFJ 25359.19791530  .00001078  00000+0  37871-3 0  9992", "line2": "2 31064  98.5750 341.5529 0240770 325.4003  46.8485 14.22163246974327"}}, "geometry": {"type": "Point", "coordinates": [-47.554528890088264, 73.3743091330162]}}, {"type": "Feature", "properties": {"norad_id": 31065, "name": "FENGYUN 1C DEB", "group": "fengyun-1c-debris", "lat": -57.37975063048916, "lon": 32.621063784286434, "alt_km": 788.4157154765462, "timestamp": "2025-12-26T11:25:45.474335+00:00", "meta": {"OBJECT_NAME": "FENGYUN 1C DEB", "OBJECT_ID": "1999-025BFK", "EPOCH": "2025-12-24T07:34:42.003552", "MEAN_MOTION": 14.28222033, "ECCENTRICITY": 0.00346758, "INCLINATION": 98.4648, "RA_OF_ASC_NODE": 17.0717, "ARG_OF_PERICENTER": 357.2807, "MEAN_ANOMALY": 2.8181, "EPHEMERIS_TYPE": 0, "CLASSIFICATION_TYPE": "U", "NORAD_CAT_ID": 31065, "ELEMENT_SET_NO": 999, "REV_AT_EPOCH": 64743, "BSTAR": 0.00089045947, "MEAN_MOTION_DOT": 2.191e-05, "MEAN_MOTION_DDOT": 0}, "tle": {"line1": "1 31065U 99025BFK 25358.31576393  .00002191  00000+0  89046-3 0  9992", "line2": "2 31065  98.4648  17.0717 0034675 357.2807   2.8181 14.28222033647437"}}, "geometry": {"type": "Point", "coordinates": [32.621063784286434, -57.37975063048916]}}, {"type": "Feature", "properties": {"norad_id": 31068, "name": "FENGYUN 1C DEB", "group": "fengyun-1c-debris", "lat": 54.58316961686181, "lon": 174.40684382491597, "alt_km": 770.9386587084009, "timestamp": "2025-12-26T11:25:45.474344+00:00", "meta": {"OBJECT_NAME": "FENGYUN 1C DEB", "OBJECT_ID": "1999-025BFN", "EPOCH": "2025-12-26T04:02:23.521920", "MEAN_MOTION": 14.09200241, "ECCENTRICITY": 0.0165806, "INCLINATION": 98.6304, "RA_OF_ASC_NODE": 341.7798, "ARG_OF_PERICENTER": 80.3434, "MEAN_ANOMALY": 281.6423, "EPHEMERIS_TYPE": 0, "CLASSIFICATION_TYPE": "U", "NORAD_CAT_ID": 31068, "ELEMENT_SET_NO": 999, "REV_AT_EPOCH": 96544, "BSTAR": 0.00024465, "MEAN_MOTION_DOT": 4.42e-06, "MEAN_MOTION_DDOT": 0}, "tle": {"line1": "1 31068U 99025BFN 25360.16832780  .00000442  00000+0  24465-3 0  9997", "line2": "2 31068  98.6304 341.7798 0165806  80.3434 281.6423 14.09200241965444"}}, "geometry": {"type": "Point", "coordinates": [174.40684382491597, 54.58316961686181]}}, {"type": "Feature", "properties": {"norad_id": 31069, "name": "FENGYUN 1C DEB", "group": "fengyun-1c-debris", "lat": -36.001093303992484, "lon": 168.71489600194045, "alt_km": 685.6289227037751, "timestamp": "2025-12-26T11:25:45.474353+00:00", "meta": {"OBJECT_NAME": "FENGYUN 1C DEB", "OBJECT_ID": "1999-025BFP", "EPOCH": "2025-12-24T06:51:36.664992", "MEAN_MOTION": 14.57173956, "ECCENTRICITY": 0.01042029, "INCLINATION": 99.1001, "RA_OF_ASC_NODE": 159.6357, "ARG_OF_PERICENTER": 42.6604, "MEAN_ANOMALY": 318.2624, "EPHEMERIS_TYPE": 0, "CLASSIFICATION_TYPE": "U", "NORAD_CAT_ID": 31069, "ELEMENT_SET_NO": 999, "REV_AT_EPOCH": 98854, "BSTAR": 0.0006394022, "MEAN_MOTION_DOT": 3.049e-05, "MEAN_MOTION_DDOT": 0}, "tle": {"line1": "1 31069U 99025BFP 25358.28584103  .00003049  00000+0  63940-3 0  9998", "line2": "2 31069  99.1001 159.6357 0104202  42.6604 318.2624 14.57173956988546"}}, "geometry": {"type": "Point", "coordinates": [168.71489600194045, -36.001093303992484]}}, {"type": "Feature", "properties": {"norad_id": 31071, "name": "FENGYUN 1C DEB", "group": "fengyun-1c-debris", "lat": -20.601644812653497, "lon": -104.15124172143832, "alt_km": 691.0820945604373, "timestamp": "2025-12-26T11:25:45.474361+00:00", "meta": {"OBJECT_NAME": "FENGYUN 1C DEB", "OBJECT_ID": "1999-025BFR", "EPOCH": "2025-12-23T11:25:25.973184", "MEAN_MOTION": 14.52716038, "ECCENTRICITY": 0.00560363, "INCLINATION": 99.0398, "RA_OF_ASC_NODE": 76.049, "ARG_OF_PERICENTER": 249.166, "MEAN_ANOMALY": 110.3527, "EPHEMERIS_TYPE": 0, "CLASSIFICATION_TYPE": "U", "NORAD_CAT_ID": 31071, "ELEMENT_SET_NO": 999, "REV_AT_EPOCH": 65650, "BSTAR": 0.0011437135, "MEAN_MOTION_DOT": 4.736e-05, "MEAN_MOTION_DDOT": 0}, "tle": {"line1": "1 31071U 99025BFR 25357.47599506  .00004736  00000+0  11437-2 0  9991", "line2": "2 31071  99.0398  76.0490 0056036 249.1660 110.3527 14.52716038656504"}}, "geometry": {"type": "Point", "coordinates": [-104.15124172143832, -20.601644812653497]}}, {"type": "Feature", "properties": {"norad_id": 31072, "name": "FENGYUN 1C DEB", "group": "fengyun-1c-debris", "lat": 16.05285449083264, "lon": -170.5449407908871, "alt_km": 843.3004881868937, "timestamp": "2025-12-26T11:25:45.474372+00:00", "meta": {"OBJECT_NAME": "FENGYUN 1C DEB", "OBJECT_ID": "1999-025BFS", "EPOCH": "2025-12-25T22:53:35.674368", "MEAN_MOTION": 14.25530356, "ECCENTRICITY": 0.0210218, "INCLINATION": 99.3336, "RA_OF_ASC_NODE": 6.1866, "ARG_OF_PERICENTER": 60.1537, "MEAN_ANOMALY": 302.0353, "EPHEMERIS_TYPE": 0, "CLASSIFICATION_TYPE": "U", "NORAD_CAT_ID": 31072, "ELEMENT_SET_NO": 999, "REV_AT_EPOCH": 96831, "BSTAR": 0.00069077, "MEAN_MOTION_DOT": 2.007e-05, "MEAN_MOTION_DDOT": 0}, "tle": {"line1": "1 31072U 99025BFS 25359.95388512  .00002007  00000+0  69077-3 0  9993", "line2": "2 31072  99.3336   6.1866 0210218  60.1537 302.0353 14.25530356968318"}}, "geometry": {"type": "Point", "coordinates": [-170.5449407908871, 16.05285449083264]}}]}